ONEWEB-0647             
1 56079U 23043AK  25351.27205844 -.00000070  00000+0 -22072-3 0  9991
2 56079  87.8994 295.5337 0001996  78.7405 281.3950 13.15549973132500
ONEWEB-0651             
1 56080U 23043AL  25351.26729040 -.00000355  00000+0 -97715-3 0  9993
2 56080  87.8995 295.5277 0001936  86.1004 274.0347 13.15548234133709
ONEWEB-0718             
1 56081U 23043AM  25351.26255499 -.00000122  00000+0 -35831-3 0  9999
2 56081  87.8998 295.5095 0001293  69.1089 291.0179 13.15549665132510
ONEWEB-0561             
1 56710U 23068A   25351.30571739  .00000120  00000+0  26303-3 0  9998
2 56710  87.9199 310.7234 0002294  85.5496 274.5900 13.20770039125498
ONEWEB-0668             
1 56711U 23068B   25351.26420407 -.00000083  00000+0 -25176-3 0  9996
2 56711  87.9058 264.9803 0001154  80.6020 279.5242 13.16596818127849
ONEWEB-0676             
1 56712U 23068C   25351.27213945 -.00000027  00000+0 -10475-3 0  9999
2 56712  87.9045 265.0004 0001881  83.0066 277.1278 13.16596049127765
ONEWEB-0677             
1 56713U 23068D   25351.29467834  .00000043  00000+0  73445-4 0  9993
2 56713  87.9210 310.7095 0001895  86.9184 273.2166 13.20771730125797
ONEWEB-0678             
1 56714U 23068E   25351.30692003  .00000156  00000+0  38024-3 0  9992
2 56714  87.9006 295.4768 0002065  72.8267 287.3089 13.15550077125370
ONEWEB-0679             
1 56715U 23068F   25351.30694082  .00000230  00000+0  56816-3 0  9994
2 56715  87.9039 264.9769 0001475  93.6136 266.5164 13.16595714127798
ONEWEB-0680             
1 56716U 23068G   25351.27390911 -.00000011  00000+0 -58885-4 0  9993
2 56716  87.9227 280.2441 0001279  89.0753 271.0527 13.21826036127066
ONEWEB-0681             
1 56717U 23068H   25351.32904266  .00000095  00000+0  19759-3 0  9990
2 56717  87.9217 280.2482 0002623  94.5901 265.5532 13.21825596127065
ONEWEB-0682             
1 56718U 23068J   25351.33306059 -.00000124  00000+0 -36262-3 0  9991
2 56718  87.8998 295.4856 0001429  90.1703 269.9591 13.15547700125544
ONEWEB-0683             
1 56719U 23068K   25351.27839331  .00000025  00000+0  32833-4 0  9998
2 56719  87.9002 295.4811 0001561  80.3424 279.7883 13.15550338125501
ONEWEB-0684             
1 56720U 23068L   25351.28631201  .00000078  00000+0  17345-3 0  9995
2 56720  87.9004 295.4740 0002580  46.7516 313.3829 13.15547276125339
ONEWEB-0686             
1 56721U 23068M   25351.26415203 -.00000157  00000+0 -45415-3 0  9995
2 56721  87.9035 265.0318 0001461  64.3636 295.7644 13.15058353127775
ONEWEB-0694             
1 56722U 23068N   25351.27371055  .00000031  00000+0  48515-4 0  9997
2 56722  87.9055 264.9618 0001198  85.1735 274.9533 13.16594968127838
