[{"OBJECT_NAME":"ONEWEB-0647","OBJECT_ID":"2023-043AK","EPOCH":"2025-12-17T06:31:45.849216","MEAN_MOTION":13.15549973,"ECCENTRICITY":0.00019969,"INCLINATION":87.8994,"RA_OF_ASC_NODE":295.5337,"ARG_OF_PERICENTER":78.7405,"MEAN_ANOMALY":281.395,"EPHEMERIS_TYPE":0,"CLASSIFICATION_TYPE":"U","NORAD_CAT_ID":56079,"ELEMENT_SET_NO":999,"REV_AT_EPOCH":13250,"BSTAR":-0.00022072357,"MEAN_MOTION_DOT":-7.0e-7,"MEAN_MOTION_DDOT":0},{"OBJECT_NAME":"ONEWEB-0651","OBJECT_ID":"2023-043AL","EPOCH":"2025-12-17T06:24:53.890560","MEAN_MOTION":13.15548234,"ECCENTRICITY":0.00019364,"INCLINATION":87.8995,"RA_OF_ASC_NODE":295.5277,"ARG_OF_PERICENTER":86.1004,"MEAN_ANOMALY":274.0347,"EPHEMERIS_TYPE":0,"CLASSIFICATION_TYPE":"U","NORAD_CAT_ID":56080,"ELEMENT_SET_NO":999,"REV_AT_EPOCH":13370,"BSTAR":-0.00097714661,"MEAN_MOTION_DOT":-3.55e-6,"MEAN_MOTION_DDOT":0},{"OBJECT_NAME":"ONEWEB-0718","OBJECT_ID":"2023-043AM","EPOCH":"2025-12-17T06:18:04.751136","MEAN_MOTION":13.15549665,"ECCENTRICITY":0.00012935,"INCLINATION":87.8998,"RA_OF_ASC_NODE":295.5095,"ARG_OF_PERICENTER":69.1089,"MEAN_ANOMALY":291.0179,"EPHEMERIS_TYPE":0,"CLASSIFICATION_TYPE":"U","NORAD_CAT_ID":56081,"ELEMENT_SET_NO":999,"REV_AT_EPOCH":13251,"BSTAR":-0.00035831403,"MEAN_MOTION_DOT":-1.22e-6,"MEAN_MOTION_DDOT":0},{"OBJECT_NAME":"ONEWEB-0561","OBJECT_ID":"2023-068A","EPOCH":"2025-12-17T07:20:13.982496","MEAN_MOTION":13.20770039,"ECCENTRICITY":0.00022942,"INCLINATION":87.9199,"RA_OF_ASC_NODE":310.7234,"ARG_OF_PERICENTER":85.5496,"MEAN_ANOMALY":274.59,"EPHEMERIS_TYPE":0,"CLASSIFICATION_TYPE":"U","NORAD_CAT_ID":56710,"ELEMENT_SET_NO":999,"REV_AT_EPOCH":12549,"BSTAR":0.00026302775,"MEAN_MOTION_DOT":1.2e-6,"MEAN_MOTION_DDOT":0},{"OBJECT_NAME":"ONEWEB-0668","OBJECT_ID":"2023-068B","EPOCH":"2025-12-17T06:20:27.231648","MEAN_MOTION":13.16596818,"ECCENTRICITY":0.00011547,"INCLINATION":87.9058,"RA_OF_ASC_NODE":264.9803,"ARG_OF_PERICENTER":80.602,"MEAN_ANOMALY":279.5242,"EPHEMERIS_TYPE":0,"CLASSIFICATION_TYPE":"U","NORAD_CAT_ID":56711,"ELEMENT_SET_NO":999,"REV_AT_EPOCH":12784,"BSTAR":-0.00025176131,"MEAN_MOTION_DOT":-8.3e-7,"MEAN_MOTION_DDOT":0},{"OBJECT_NAME":"ONEWEB-0676","OBJECT_ID":"2023-068C","EPOCH":"2025-12-17T06:31:52.848480","MEAN_MOTION":13.16596049,"ECCENTRICITY":0.00018815,"INCLINATION":87.9045,"RA_OF_ASC_NODE":265.0004,"ARG_OF_PERICENTER":83.0066,"MEAN_ANOMALY":277.1278,"EPHEMERIS_TYPE":0,"CLASSIFICATION_TYPE":"U","NORAD_CAT_ID":56712,"ELEMENT_SET_NO":999,"REV_AT_EPOCH":12776,"BSTAR":-0.0001047507,"MEAN_MOTION_DOT":-2.7e-7,"MEAN_MOTION_DDOT":0},{"OBJECT_NAME":"ONEWEB-0677","OBJECT_ID":"2023-068D","EPOCH":"2025-12-17T07:04:20.208576","MEAN_MOTION":13.2077173,"ECCENTRICITY":0.00018951,"INCLINATION":87.921,"RA_OF_ASC_NODE":310.7095,"ARG_OF_PERICENTER":86.9184,"MEAN_ANOMALY":273.2166,"EPHEMERIS_TYPE":0,"CLASSIFICATION_TYPE":"U","NORAD_CAT_ID":56713,"ELEMENT_SET_NO":999,"REV_AT_EPOCH":12579,"BSTAR":7.3445014e-5,"MEAN_MOTION_DOT":4.3e-7,"MEAN_MOTION_DDOT":0},{"OBJECT_NAME":"ONEWEB-0678","OBJECT_ID":"2023-068E","EPOCH":"2025-12-17T07:21:57.890592","MEAN_MOTION":13.15550077,"ECCENTRICITY":0.0002065,"INCLINATION":87.9006,"RA_OF_ASC_NODE":295.4768,"ARG_OF_PERICENTER":72.8267,"MEAN_ANOMALY":287.3089,"EPHEMERIS_TYPE":0,"CLASSIFICATION_TYPE":"U","NORAD_CAT_ID":56714,"ELEMENT_SET_NO":999,"REV_AT_EPOCH":12537,"BSTAR":0.0003802401,"MEAN_MOTION_DOT":1.56e-6,"MEAN_MOTION_DDOT":0},{"OBJECT_NAME":"ONEWEB-0679","OBJECT_ID":"2023-068F","EPOCH":"2025-12-17T07:21:59.686848","MEAN_MOTION":13.16595714,"ECCENTRICITY":0.00014753,"INCLINATION":87.9039,"RA_OF_ASC_NODE":264.9769,"ARG_OF_PERICENTER":93.6136,"MEAN_ANOMALY":266.5164,"EPHEMERIS_TYPE":0,"CLASSIFICATION_TYPE":"U","NORAD_CAT_ID":56715,"ELEMENT_SET_NO":999,"REV_AT_EPOCH":12779,"BSTAR":0.00056816443,"MEAN_MOTION_DOT":2.3e-6,"MEAN_MOTION_DDOT":0},{"OBJECT_NAME":"ONEWEB-0680","OBJECT_ID":"2023-068G","EPOCH":"2025-12-17T06:34:25.747104","MEAN_MOTION":13.21826036,"ECCENTRICITY":0.00012797,"INCLINATION":87.9227,"RA_OF_ASC_NODE":280.2441,"ARG_OF_PERICENTER":89.0753,"MEAN_ANOMALY":271.0527,"EPHEMERIS_TYPE":0,"CLASSIFICATION_TYPE":"U","NORAD_CAT_ID":56716,"ELEMENT_SET_NO":999,"REV_AT_EPOCH":12706,"BSTAR":-5.8884899e-5,"MEAN_MOTION_DOT":-1.1e-7,"MEAN_MOTION_DDOT":0},{"OBJECT_NAME":"ONEWEB-0681","OBJECT_ID":"2023-068H","EPOCH":"2025-12-17T07:53:49.285824","MEAN_MOTION":13.21825596,"ECCENTRICITY":0.00026238,"INCLINATION":87.9217,"RA_OF_ASC_NODE":280.2482,"ARG_OF_PERICENTER":94.5901,"MEAN_ANOMALY":265.5532,"EPHEMERIS_TYPE":0,"CLASSIFICATION_TYPE":"U","NORAD_CAT_ID":56717,"ELEMENT_SET_NO":999,"REV_AT_EPOCH":12706,"BSTAR":0.00019758791,"MEAN_MOTION_DOT":9.5e-7,"MEAN_MOTION_DDOT":0},{"OBJECT_NAME":"ONEWEB-0682","OBJECT_ID":"2023-068J","EPOCH":"2025-12-17T07:59:36.434976","MEAN_MOTION":13.155477,"ECCENTRICITY":0.00014292,"INCLINATION":87.8998,"RA_OF_ASC_NODE":295.4856,"ARG_OF_PERICENTER":90.1703,"MEAN_ANOMALY":269.9591,"EPHEMERIS_TYPE":0,"CLASSIFICATION_TYPE":"U","NORAD_CAT_ID":56718,"ELEMENT_SET_NO":999,"REV_AT_EPOCH":12554,"BSTAR":-0.00036261816,"MEAN_MOTION_DOT":-1.24e-6,"MEAN_MOTION_DDOT":0},{"OBJECT_NAME":"ONEWEB-0683","OBJECT_ID":"2023-068K","EPOCH":"2025-12-17T06:40:53.181984","MEAN_MOTION":13.15550338,"ECCENTRICITY":0.00015615,"INCLINATION":87.9002,"RA_OF_ASC_NODE":295.4811,"ARG_OF_PERICENTER":80.3424,"MEAN_ANOMALY":279.7883,"EPHEMERIS_TYPE":0,"CLASSIFICATION_TYPE":"U","NORAD_CAT_ID":56719,"ELEMENT_SET_NO":999,"REV_AT_EPOCH":12550,"BSTAR":3.2833121e-5,"MEAN_MOTION_DOT":2.5e-7,"MEAN_MOTION_DDOT":0},{"OBJECT_NAME":"ONEWEB-0684","OBJECT_ID":"2023-068L","EPOCH":"2025-12-17T06:52:17.357664","MEAN_MOTION":13.15547276,"ECCENTRICITY":0.00025801,"INCLINATION":87.9004,"RA_OF_ASC_NODE":295.474,"ARG_OF_PERICENTER":46.7516,"MEAN_ANOMALY":313.3829,"EPHEMERIS_TYPE":0,"CLASSIFICATION_TYPE":"U","NORAD_CAT_ID":56720,"ELEMENT_SET_NO":999,"REV_AT_EPOCH":12533,"BSTAR":0.00017344675,"MEAN_MOTION_DOT":7.8e-7,"MEAN_MOTION_DDOT":0},{"OBJECT_NAME":"ONEWEB-0686","OBJECT_ID":"2023-068M","EPOCH":"2025-12-17T06:20:22.735392","MEAN_MOTION":13.15058353,"ECCENTRICITY":0.00014614,"INCLINATION":87.9035,"RA_OF_ASC_NODE":265.0318,"ARG_OF_PERICENTER":64.3636,"MEAN_ANOMALY":295.7644,"EPHEMERIS_TYPE":0,"CLASSIFICATION_TYPE":"U","NORAD_CAT_ID":56721,"ELEMENT_SET_NO":999,"REV_AT_EPOCH":12777,"BSTAR":-0.00045415468,"MEAN_MOTION_DOT":-1.57e-6,"MEAN_MOTION_DDOT":0},{"OBJECT_NAME":"ONEWEB-0694","OBJECT_ID":"2023-068N","EPOCH":"2025-12-17T06:34:08.591520","MEAN_MOTION":13.16594968,"ECCENTRICITY":0.00011981,"INCLINATION":87.9055,"RA_OF_ASC_NODE":264.9618,"ARG_OF_PERICENTER":85.1735,"MEAN_ANOMALY":274.9533,"EPHEMERIS_TYPE":0,"CLASSIFICATION_TYPE":"U","NORAD_CAT_ID":56722,"ELEMENT_SET_NO":999,"REV_AT_EPOCH":12783,"BSTAR":4.8515267e-5,"MEAN_MOTION_DOT":3.1e-7,"MEAN_MOTION_DDOT":0}]
